date:2024-08-30T03:18:30+00:00
validtle:1
satid:53578
launchyear:2022
epoch:24242.1687446
epochday:242
tleage:1
tleclassification:U
active:1
name:STARLINK-4556
meananomly:270.2253
meanmotion:15.0884
rightascension:0.0000
declination:0.0000
semimajoraxis:6917.8827702735
altitudeatperigee:539
altitudeatapogee:541
inclination:53.2179
eccentricity:0.0001483
argumentofperigree:89.8909
nickname:STARLINK-4556
idesg:22101BD 
cosparid:2022-101BD
altkm:540.63934299272
velkms:7.5932256941251
velkmh:27336
onumepoch:11228
onumnow:169427.17
otype:1
otypedesc:Low Earth Orbit (LEO)
status:1
timestamp:2024-08-29T04:03:00+00:00
nowjuliandate:2460552.6378473
nowepochdate:24243.1378472222
TLE:
STARLINK-4556
1 53578U 22101BD  24242.16874460 -.00001523  00000+0 -77612-4 0  9993
2 53578  53.2179  36.5622 0001483  89.8909 270.2253 15.08839896112282